STARLINK-1141_new
1 15051C 20006H   21326.00448807  .00008173  00000-0  54022-3 0  3267
2 15051  53.0518 128.6328 0001828  99.2069 225.3176 15.06890751    12
STARLINK-1141_old
1 25051C 20006H   21325.06212035  .00006904  00000-0  45647-3 0  3256
2 25051  53.0513 132.8667 0001864  98.1206 151.4156 15.06882813    18
